TIANMU-1 20             
1 58661U 23208B   26200.56986183  .00004438  00000+0  14078-3 0  9998
2 58661  97.4470 317.7191 0006770 195.6416 164.4618 15.33204070142383
TIANMU-1 21             
1 58662U 23208C   26200.63888751  .00005364  00000+0  15728-3 0  9991
2 58662  97.4531 320.6120 0007141 188.0490 172.0641 15.35600340142549
TIANMU-1 22             
1 58663U 23208D   26200.61559988  .00003972  00000+0  13333-3 0  9990
2 58663  97.4524 317.0038 0003175 199.6540 160.4579 15.31463122142291
TIANMU-1 15             
1 58700U 24004A   26200.60350683  .00002789  00000+0  10824-3 0  9994
2 58700  97.4675  26.7946 0006414 210.5654 149.5212 15.26939609140720
TIANMU-1 16             
1 58701U 24004B   26200.59267450  .00002641  00000+0  10237-3 0  9997
2 58701  97.4623  25.9980 0004704 225.7055 134.3798 15.27042657140726
TIANMU-1 17             
1 58702U 24004C   26200.64369140  .00002728  00000+0  10564-3 0  9992
2 58702  97.4650  26.5458 0004158 230.5874 129.4997 15.27040589140728
TIANMU-1 18             
1 58703U 24004D   26200.62002801  .00002744  00000+0  10651-3 0  9994
2 58703  97.4667  26.7852 0004157 205.6675 154.4358 15.26955190140729
INSAT-3DS               
1 58990U 24033A   26200.60785777 -.00000159  00000+0  00000+0 0  9994
2 58990   0.0789 264.0378 0001239 221.2607 112.9793  1.00270801 47396
METEOR-M2 4             
1 59051U 24039A   26200.61106620 -.00000015  00000+0  13110-4 0  9996
2 59051  98.7028 159.5049 0008245  77.8292 282.3809 14.22432348123879
GOES 19                 
1 60133U 24119A   26200.53416079 -.00000253  00000+0  00000+0 0  9994
2 60133   0.0189 142.1330 0000285  52.3537 219.9312  1.00272704  7284
MTG-S1                  
1 64723U 25143A   26200.33508905 -.00000012  00000+0  00000+0 0  9992
2 64723   0.5820 346.0969 0003285 258.8002 172.4915  1.00274833  3740
METOP-SGA1              
1 65159U 25172A   26195.76442858  .00000019  00000+0  29163-4 0  9994
2 65159  98.6631 254.9090 0007098 333.3306  26.7504 14.19819127 47700
FENGYUN 3H              
1 65815U 25219A   26200.59638975  .00000006  00000+0  23267-4 0  9995
2 65815  98.6770 140.7364 0001057  62.1096 298.0187 14.19925150 41980
