OBJECT_NAME,OBJECT_ID,EPOCH,MEAN_MOTION,ECCENTRICITY,INCLINATION,RA_OF_ASC_NODE,ARG_OF_PERICENTER,MEAN_ANOMALY,EPHEMERIS_TYPE,CLASSIFICATION_TYPE,NORAD_CAT_ID,ELEMENT_SET_NO,REV_AT_EPOCH,BSTAR,MEAN_MOTION_DOT,MEAN_MOTION_DDOT
TIANMU-1 20,2023-208B,2026-07-19T13:40:36.062112,15.33204070,.00067706,97.4470,317.7191,195.6416,164.4618,0,U,58661,999,14238,.14077879E-3,.4438E-4,0
TIANMU-1 21,2023-208C,2026-07-19T15:19:59.880864,15.35600340,.00071412,97.4531,320.6120,188.0490,172.0641,0,U,58662,999,14254,.15728439E-3,.5364E-4,0
TIANMU-1 22,2023-208D,2026-07-19T14:46:27.829632,15.31463122,.00031759,97.4524,317.0038,199.6540,160.4579,0,U,58663,999,14229,.13332804E-3,.3972E-4,0
TIANMU-1 15,2024-004A,2026-07-19T14:29:02.990112,15.26939609,.00064146,97.4675,26.7946,210.5654,149.5212,0,U,58700,999,14072,.10823629E-3,.2789E-4,0
TIANMU-1 16,2024-004B,2026-07-19T14:13:27.076800,15.27042657,.00047044,97.4623,25.9980,225.7055,134.3798,0,U,58701,999,14072,.10236749E-3,.2641E-4,0
TIANMU-1 17,2024-004C,2026-07-19T15:26:54.936960,15.27040589,.0004158,97.4650,26.5458,230.5874,129.4997,0,U,58702,999,14072,.10563711E-3,.2728E-4,0
TIANMU-1 18,2024-004D,2026-07-19T14:52:50.420064,15.26955190,.00041577,97.4667,26.7852,205.6675,154.4358,0,U,58703,999,14072,.10651067E-3,.2744E-4,0
INSAT-3DS,2024-033A,2026-07-19T14:35:18.911328,1.00270801,.00012394,0.0789,264.0378,221.2607,112.9793,0,U,58990,999,4739,0,-.159E-5,0
METEOR-M2 4,2024-039A,2026-07-19T14:39:56.119680,14.22432348,.00082454,98.7028,159.5049,77.8292,282.3809,0,U,59051,999,12387,.13110178E-4,-.15E-6,0
GOES 19,2024-119A,2026-07-19T12:49:11.492256,1.00272704,.00002851,0.0189,142.1330,52.3537,219.9312,0,U,60133,999,728,0,-.253E-5,0
MTG-S1,2025-143A,2026-07-19T08:02:31.693920,1.00274833,.00032854,0.5820,346.0969,258.8002,172.4915,0,U,64723,999,374,0,-.12E-6,0
METOP-SGA1,2025-172A,2026-07-14T18:20:46.629312,14.19819127,.00070989,98.6631,254.9090,333.3306,26.7504,0,U,65159,999,4770,.2916334E-4,.19E-6,0
FENGYUN 3H,2025-219A,2026-07-19T14:18:48.074400,14.19925150,.0001057,98.6770,140.7364,62.1096,298.0187,0,U,65815,999,4198,.23266776E-4,.6E-7,0
